start=new Date('2022-08-09T00:00:00.000Z').valueOf();
sats=[{"MEAN_ANOMALY":"276.2340","OBJECT_TYPE":"PAYLOAD","CLASSIFICATION_TYPE":"U","SEMIMAJOR_AXIS":"6925.315","INCLINATION":"53.0537","OBJECT_ID":"2021-005AZ","PERIOD":"95.591","DECAY_DATE":null,"ECCENTRICITY":"0.00015660","MEAN_MOTION_DOT":"0.00003174","ARG_OF_PERICENTER":"83.8827","NORAD_CAT_ID":"47396","MEAN_MOTION_DDOT":"0.0000000000000","APOAPSIS":"548.265","EPOCH":"2022-08-08T14:09:08.917056","GP_ID":"209861129","OBJECT_NAME":"STARLINK-2118","LAUNCH_DATE":"2021-01-20","EPHEMERIS_TYPE":"0","RA_OF_ASC_NODE":"148.4002","COUNTRY_CODE":"US","PERIAPSIS":"546.096","RCS_SIZE":"LARGE","SITE":"AFETR","MEAN_MOTION":"15.06410878","CENTER_NAME":"EARTH","MEAN_ELEMENT_THEORY":"SGP4","ELEMENT_SET_NO":"999","TLE_LINE1":"1 47396U 21005AZ  22220.58968654  .00003174  00000-0  23184-3 0  9992","FILE":"3532305","BSTAR":"0.00023184000000","REF_FRAME":"TEME","TLE_LINE2":"2 47396  53.0537 148.4002 0001566  83.8827 276.2340 15.06410878 86151","TIME_SYSTEM":"UTC","REV_AT_EPOCH":"8615"},{"CENTER_NAME":"EARTH","MEAN_ELEMENT_THEORY":"SGP4","MEAN_MOTION":"15.06396720","SITE":"AFETR","RCS_SIZE":"LARGE","PERIAPSIS":"545.923","COUNTRY_CODE":"US","REV_AT_EPOCH":"8568","TIME_SYSTEM":"UTC","TLE_LINE2":"2 47397  53.0543 179.8906 0001878  63.8255 296.2927 15.06396720 85688","ELEMENT_SET_NO":"999","TLE_LINE1":"1 47397U 21005BA  22220.25519892  .00000669  00000-0  63827-4 0  9998","FILE":"3532128","BSTAR":"0.00006382700000","REF_FRAME":"TEME","ARG_OF_PERICENTER":"63.8255","NORAD_CAT_ID":"47397","MEAN_MOTION_DOT":"0.00000669","ECCENTRICITY":"0.00018780","OBJECT_ID":"2021-005BA","DECAY_DATE":null,"PERIOD":"95.592","INCLINATION":"53.0543","SEMIMAJOR_AXIS":"6925.359","MEAN_ANOMALY":"296.2927","OBJECT_TYPE":"PAYLOAD","CLASSIFICATION_TYPE":"U","RA_OF_ASC_NODE":"179.8906","EPHEMERIS_TYPE":"0","LAUNCH_DATE":"2021-01-20","GP_ID":"209832188","OBJECT_NAME":"STARLINK-2119","EPOCH":"2022-08-08T06:07:29.186688","APOAPSIS":"548.524","MEAN_MOTION_DDOT":"0.0000000000000"},{"COUNTRY_CODE":"US","PERIAPSIS":"546.004","RCS_SIZE":"LARGE","CENTER_NAME":"EARTH","MEAN_ELEMENT_THEORY":"SGP4","SITE":"AFETR","MEAN_MOTION":"15.06401282","REF_FRAME":"TEME","FILE":"3532128","BSTAR":"-0.00000094987000","ELEMENT_SET_NO":"999","TLE_LINE1":"1 47398U 21005BB  22220.22846976 -.00000296  00000-0 -94987-6 0  9993","TLE_LINE2":"2 47398  53.0551 150.0298 0001741  70.0427 290.0749 15.06401282 86093","REV_AT_EPOCH":"8609","TIME_SYSTEM":"UTC","SEMIMAJOR_AXIS":"6925.345","CLASSIFICATION_TYPE":"U","MEAN_ANOMALY":"290.0749","OBJECT_TYPE":"PAYLOAD","DECAY_DATE":null,"PERIOD":"95.592","OBJECT_ID":"2021-005BB","INCLINATION":"53.0551","ECCENTRICITY":"0.00017410","NORAD_CAT_ID":"47398","ARG_OF_PERICENTER":"70.0427","MEAN_MOTION_DOT":"-0.00000296","APOAPSIS":"548.415","MEAN_MOTION_DDOT":"0.0000000000000","OBJECT_NAME":"STARLINK-2120","GP_ID":"209830936","EPOCH":"2022-08-08T05:28:59.787264","EPHEMERIS_TYPE":"0","LAUNCH_DATE":"2021-01-20","RA_OF_ASC_NODE":"150.0298"},{"RA_OF_ASC_NODE":"157.7162","EPHEMERIS_TYPE":"0","LAUNCH_DATE":"2021-01-20","EPOCH":"2022-08-08T19:05:06.179424","GP_ID":"209860378","OBJECT_NAME":"STARLINK-2121","MEAN_MOTION_DDOT":"0.0000000000000","APOAPSIS":"548.374","MEAN_MOTION_DOT":"0.00001032","ARG_OF_PERICENTER":"64.9372","NORAD_CAT_ID":"47399","ECCENTRICITY":"0.00016960","INCLINATION":"53.0543","OBJECT_ID":"2021-005BC","DECAY_DATE":null,"PERIOD":"95.592","MEAN_ANOMALY":"295.1793","OBJECT_TYPE":"PAYLOAD","CLASSIFICATION_TYPE":"U","SEMIMAJOR_AXIS":"6925.334","TIME_SYSTEM":"UTC","REV_AT_EPOCH":"8603","TLE_LINE2":"2 47399  53.0543 157.7162 0001696  64.9372 295.1793 15.06404736 86035","TLE_LINE1":"1 47399U 21005BC  22220.79521041  .00001032  00000-0  88178-4 0  9999","ELEMENT_SET_NO":"999","REF_FRAME":"TEME","FILE":"3532305","BSTAR":"0.00008817800000","SITE":"AFETR","MEAN_MOTION":"15.06404736","CENTER_NAME":"EARTH","MEAN_ELEMENT_THEORY":"SGP4","RCS_SIZE":"LARGE","PERIAPSIS":"546.025","COUNTRY_CODE":"US"},{"REF_FRAME":"TEME","FILE":"3532305","BSTAR":"0.00014189000000","ELEMENT_SET_NO":"999","TLE_LINE1":"1 47400U 21005BD  22220.82281967  .00001833  00000-0  14189-3 0  9995","TLE_LINE2":"2 47400  53.0554 137.3582 0001741  71.4702 288.6476 15.06410458 86326","TIME_SYSTEM":"UTC","REV_AT_EPOCH":"8632","COUNTRY_CODE":"US","PERIAPSIS":"545.976","RCS_SIZE":"LARGE","SITE":"AFETR","MEAN_MOTION":"15.06410458","MEAN_ELEMENT_THEORY":"SGP4","CENTER_NAME":"EARTH","MEAN_MOTION_DDOT":"0.0000000000000","APOAPSIS":"548.387","EPOCH":"2022-08-08T19:44:51.619488","OBJECT_NAME":"STARLINK-2122","GP_ID":"209861629","EPHEMERIS_TYPE":"0","LAUNCH_DATE":"2021-01-20","RA_OF_ASC_NODE":"137.3582","CLASSIFICATION_TYPE":"U","OBJECT_TYPE":"PAYLOAD","MEAN_ANOMALY":"288.6476","SEMIMAJOR_AXIS":"6925.317","INCLINATION":"53.0554","DECAY_DATE":null,"PERIOD":"95.591","OBJECT_ID":"2021-005BD","ECCENTRICITY":"0.00017410","MEAN_MOTION_DOT":"0.00001833","NORAD_CAT_ID":"47400","ARG_OF_PERICENTER":"71.4702"},{"EPOCH":"2022-08-08T13:47:55.393152","OBJECT_NAME":"STARLINK-2123","GP_ID":"209861880","MEAN_MOTION_DDOT":"0.0000000000000","APOAPSIS":"548.480","RA_OF_ASC_NODE":"148.4777","EPHEMERIS_TYPE":"0","LAUNCH_DATE":"2021-01-20","INCLINATION":"53.0546","DECAY_DATE":null,"PERIOD":"95.592","OBJECT_ID":"2021-005BE","CLASSIFICATION_TYPE":"U","OBJECT_TYPE":"PAYLOAD","MEAN_ANOMALY":"285.8598","SEMIMAJOR_AXIS":"6925.341","MEAN_MOTION_DOT":"0.00001067","NORAD_CAT_ID":"47401","ARG_OF_PERICENTER":"74.2593","ECCENTRICITY":"0.00018400","TLE_LINE2":"2 47401  53.0546 148.4777 0001840  74.2593 285.8598 15.06402609 86150","BSTAR":"0.00009051800000","FILE":"3532305","REF_FRAME":"TEME","ELEMENT_SET_NO":"999","TLE_LINE1":"1 47401U 21005BE  22220.57494668  .00001067  00000-0  90518-4 0  9992","TIME_SYSTEM":"UTC","REV_AT_EPOCH":"8615","PERIAPSIS":"545.931","COUNTRY_CODE":"US","MEAN_MOTION":"15.06402609","SITE":"AFETR","MEAN_ELEMENT_THEORY":"SGP4","CENTER_NAME":"EARTH","RCS_SIZE":"LARGE"},{"COUNTRY_CODE":"US","PERIAPSIS":"545.587","RCS_SIZE":"LARGE","MEAN_MOTION":"15.06411388","SITE":"AFETR","MEAN_ELEMENT_THEORY":"SGP4","CENTER_NAME":"EARTH","FILE":"3532305","BSTAR":"0.00006037900000","REF_FRAME":"TEME","TLE_LINE1":"1 47402U 21005BF  22220.79241088  .00000618  00000-0  60379-4 0  9996","ELEMENT_SET_NO":"999","TLE_LINE2":"2 47402  53.0544 147.4878 0002298  67.1867 292.9364 15.06411388 86180","TIME_SYSTEM":"UTC","REV_AT_EPOCH":"8618","CLASSIFICATION_TYPE":"U","OBJECT_TYPE":"PAYLOAD","MEAN_ANOMALY":"292.9364","SEMIMAJOR_AXIS":"6925.314","INCLINATION":"53.0544","PERIOD":"95.591","DECAY_DATE":null,"OBJECT_ID":"2021-005BF","ECCENTRICITY":"0.00022980","MEAN_MOTION_DOT":"0.00000618","NORAD_CAT_ID":"47402","ARG_OF_PERICENTER":"67.1867","MEAN_MOTION_DDOT":"0.0000000000000","APOAPSIS":"548.770","EPOCH":"2022-08-08T19:01:04.300032","OBJECT_NAME":"STARLINK-2124","GP_ID":"209860628","EPHEMERIS_TYPE":"0","LAUNCH_DATE":"2021-01-20","RA_OF_ASC_NODE":"147.4878"},{"PERIAPSIS":"545.897","COUNTRY_CODE":"US","MEAN_ELEMENT_THEORY":"SGP4","CENTER_NAME":"EARTH","MEAN_MOTION":"15.06425412","SITE":"AFETR","RCS_SIZE":"LARGE","TLE_LINE2":"2 47403  53.0534 147.4636 0001788  75.3698 284.7489 15.06425412 86188","BSTAR":"0.00054436000000","FILE":"3532305","REF_FRAME":"TEME","TLE_LINE1":"1 47403U 21005BG  22220.79978371  .00007841  00000-0  54436-3 0  9990","ELEMENT_SET_NO":"999","REV_AT_EPOCH":"8618","TIME_SYSTEM":"UTC","DECAY_DATE":null,"PERIOD":"95.591","OBJECT_ID":"2021-005BG","INCLINATION":"53.0534","SEMIMAJOR_AXIS":"6925.271","CLASSIFICATION_TYPE":"U","MEAN_ANOMALY":"284.7489","OBJECT_TYPE":"PAYLOAD","NORAD_CAT_ID":"47403","ARG_OF_PERICENTER":"75.3698","MEAN_MOTION_DOT":"0.00007841","ECCENTRICITY":"0.00017880","OBJECT_NAME":"STARLINK-2127","GP_ID":"209860878","EPOCH":"2022-08-08T19:11:41.312544","APOAPSIS":"548.374","MEAN_MOTION_DDOT":"0.0000000000000","RA_OF_ASC_NODE":"147.4636","EPHEMERIS_TYPE":"0","LAUNCH_DATE":"2021-01-20"},{"RCS_SIZE":"LARGE","SITE":"AFETR","MEAN_MOTION":"15.06419947","MEAN_ELEMENT_THEORY":"SGP4","CENTER_NAME":"EARTH","COUNTRY_CODE":"US","PERIAPSIS":"545.749","TIME_SYSTEM":"UTC","REV_AT_EPOCH":"8618","ELEMENT_SET_NO":"999","TLE_LINE1":"1 47404U 21005BH  22220.79609585  .00006380  00000-0  44660-3 0  9994","REF_FRAME":"TEME","FILE":"3532305","BSTAR":"0.00044660000000","TLE_LINE2":"2 47404  53.0544 147.4787 0002026  73.5900 286.5312 15.06419947 86180","ECCENTRICITY":"0.00020260","MEAN_MOTION_DOT":"0.00006380","ARG_OF_PERICENTER":"73.5900","NORAD_CAT_ID":"47404","MEAN_ANOMALY":"286.5312","OBJECT_TYPE":"PAYLOAD","CLASSIFICATION_TYPE":"U","SEMIMAJOR_AXIS":"6925.287","INCLINATION":"53.0544","OBJECT_ID":"2021-005BH","DECAY_DATE":null,"PERIOD":"95.591","LAUNCH_DATE":"2021-01-20","EPHEMERIS_TYPE":"0","RA_OF_ASC_NODE":"147.4787","MEAN_MOTION_DDOT":"0.0000000000000","APOAPSIS":"548.555","EPOCH":"2022-08-08T19:06:22.681440","GP_ID":"209861130","OBJECT_NAME":"STARLINK-2128"},{"RCS_SIZE":"LARGE","MEAN_ELEMENT_THEORY":"SGP4","CENTER_NAME":"EARTH","MEAN_MOTION":"15.06409033","SITE":"AFETR","COUNTRY_CODE":"US","PERIAPSIS":"545.962","REV_AT_EPOCH":"8577","TIME_SYSTEM":"UTC","BSTAR":"0.00011435000000","FILE":"3532305","REF_FRAME":"TEME","TLE_LINE1":"1 47405U 21005BJ  22220.91128291  .00001422  00000-0  11435-3 0  9995","ELEMENT_SET_NO":"999","TLE_LINE2":"2 47405  53.0545 176.9464 0001767  58.7679 301.3483 15.06409033 85774","ECCENTRICITY":"0.00017670","NORAD_CAT_ID":"47405","ARG_OF_PERICENTER":"58.7679","MEAN_MOTION_DOT":"0.00001422","SEMIMAJOR_AXIS":"6925.321","CLASSIFICATION_TYPE":"U","MEAN_ANOMALY":"301.3483","OBJECT_TYPE":"PAYLOAD","DECAY_DATE":null,"PERIOD":"95.592","OBJECT_ID":"2021-005BJ","INCLINATION":"53.0545","EPHEMERIS_TYPE":"0","LAUNCH_DATE":"2021-01-20","RA_OF_ASC_NODE":"176.9464","APOAPSIS":"548.410","MEAN_MOTION_DDOT":"0.0000000000000","OBJECT_NAME":"STARLINK-2130","GP_ID":"209861381","EPOCH":"2022-08-08T21:52:14.843424"}];
